{"type": "FeatureCollection", "features": [{"type": "Feature", "properties": {"norad_id": 26766, "name": "INTELSAT 10 (IS-10)", "group": "intelsat", "lat": -7.439010844805908, "lon": -59.62512434172602, "alt_km": 36092.86908668383, "timestamp": "2025-12-11T05:00:25.978446+00:00", "meta": {"OBJECT_NAME": "INTELSAT 10 (IS-10)", "OBJECT_ID": "2001-019A", "EPOCH": "2025-12-10T14:14:44.567232", "MEAN_MOTION": 0.99078928, "ECCENTRICITY": 0.00078121, "INCLINATION": 8.625, "RA_OF_ASC_NODE": 61.1789, "ARG_OF_PERICENTER": 223.6466, "MEAN_ANOMALY": 156.4185, "EPHEMERIS_TYPE": 0, "CLASSIFICATION_TYPE": "U", "NORAD_CAT_ID": 26766, "ELEMENT_SET_NO": 999, "REV_AT_EPOCH": 4371, "BSTAR": 0, "MEAN_MOTION_DOT": -2.88e-06, "MEAN_MOTION_DDOT": 0}, "tle": {"line1": "1 26766U 01019A   25344.59357138 -.00000288  00000+0  00000+0 0  9994", "line2": "2 26766   8.6250  61.1789 0007812 223.6466 156.4185  0.99078928 43716"}}, "geometry": {"type": "Point", "coordinates": [-59.62512434172602, -7.439010844805908]}}, {"type": "Feature", "properties": {"norad_id": 26900, "name": "INTELSAT 902 (IS-902)", "group": "intelsat", "lat": 2.915327264167388, "lon": 104.91208636787124, "alt_km": 35801.990054608264, "timestamp": "2025-12-11T05:00:25.978470+00:00", "meta": {"OBJECT_NAME": "INTELSAT 902 (IS-902)", "OBJECT_ID": "2001-039A", "EPOCH": "2025-12-01T16:59:59.311968", "MEAN_MOTION": 1.00270327, "ECCENTRICITY": 0.00043097, "INCLINATION": 5.6187, "RA_OF_ASC_NODE": 74.2002, "ARG_OF_PERICENTER": 175.119, "MEAN_ANOMALY": 26.3816, "EPHEMERIS_TYPE": 0, "CLASSIFICATION_TYPE": "U", "NORAD_CAT_ID": 26900, "ELEMENT_SET_NO": 999, "REV_AT_EPOCH": 8871, "BSTAR": 0, "MEAN_MOTION_DOT": -2.63e-06, "MEAN_MOTION_DDOT": 0}, "tle": {"line1": "1 26900U 01039A   25335.70832537 -.00000263  00000+0  00000+0 0  9993", "line2": "2 26900   5.6187  74.2002 0004309 175.1190  26.3816  1.00270327 88713"}}, "geometry": {"type": "Point", "coordinates": [104.91208636787124, 2.915327264167388]}}, {"type": "Feature", "properties": {"norad_id": 27380, "name": "INTELSAT 904 (IS-904)", "group": "intelsat", "lat": 5.115489591364446, "lon": 123.59193409630635, "alt_km": 35791.39076251839, "timestamp": "2025-12-11T05:00:25.978486+00:00", "meta": {"OBJECT_NAME": "INTELSAT 904 (IS-904)", "OBJECT_ID": "2002-007A", "EPOCH": "2025-12-10T15:06:12.321792", "MEAN_MOTION": 1.00272927, "ECCENTRICITY": 0.00015123, "INCLINATION": 6.4498, "RA_OF_ASC_NODE": 71.4559, "ARG_OF_PERICENTER": 220.2282, "MEAN_ANOMALY": 342.9563, "EPHEMERIS_TYPE": 0, "CLASSIFICATION_TYPE": "U", "NORAD_CAT_ID": 27380, "ELEMENT_SET_NO": 999, "REV_AT_EPOCH": 4987, "BSTAR": 0, "MEAN_MOTION_DOT": -2.22e-06, "MEAN_MOTION_DDOT": 0}, "tle": {"line1": "1 27380U 02007A   25344.62930928 -.00000222  00000+0  00000+0 0  9991", "line2": "2 27380   6.4498  71.4559 0001512 220.2282 342.9563  1.00272927 49871"}}, "geometry": {"type": "Point", "coordinates": [123.59193409630635, 5.115489591364446]}}, {"type": "Feature", "properties": {"norad_id": 27426, "name": "DIRECTV 5 (TEMPO 1)", "group": "intelsat", "lat": -2.345279640393422, "lon": 45.260846284001275, "alt_km": 35796.97332553915, "timestamp": "2025-12-11T05:00:25.978500+00:00", "meta": {"OBJECT_NAME": "DIRECTV 5 (TEMPO 1)", "OBJECT_ID": "2002-023A", "EPOCH": "2025-12-10T16:26:33.605088", "MEAN_MOTION": 1.00271765, "ECCENTRICITY": 0.000355, "INCLINATION": 4.3972, "RA_OF_ASC_NODE": 77.6756, "ARG_OF_PERICENTER": 192.8053, "MEAN_ANOMALY": 305.6907, "EPHEMERIS_TYPE": 0, "CLASSIFICATION_TYPE": "U", "NORAD_CAT_ID": 27426, "ELEMENT_SET_NO": 999, "REV_AT_EPOCH": 8623, "BSTAR": 0, "MEAN_MOTION_DOT": -5.3e-07, "MEAN_MOTION_DDOT": 0}, "tle": {"line1": "1 27426U 02023A   25344.68511117 -.00000053  00000+0  00000+0 0  9993", "line2": "2 27426   4.3972  77.6756 0003550 192.8053 305.6907  1.00271765 86235"}}, "geometry": {"type": "Point", "coordinates": [45.260846284001275, -2.345279640393422]}}, {"type": "Feature", "properties": {"norad_id": 27438, "name": "INTELSAT 905 (IS-905)", "group": "intelsat", "lat": -5.069082311975575, "lon": 18.27400081579687, "alt_km": 35791.07872440775, "timestamp": "2025-12-11T05:00:25.978512+00:00", "meta": {"OBJECT_NAME": "INTELSAT 905 (IS-905)", "OBJECT_ID": "2002-027A", "EPOCH": "2025-12-10T10:38:24.492192", "MEAN_MOTION": 1.00272307, "ECCENTRICITY": 0.00027995, "INCLINATION": 6.2803, "RA_OF_ASC_NODE": 72.0822, "ARG_OF_PERICENTER": 193.4676, "MEAN_ANOMALY": 196.2661, "EPHEMERIS_TYPE": 0, "CLASSIFICATION_TYPE": "U", "NORAD_CAT_ID": 27438, "ELEMENT_SET_NO": 999, "REV_AT_EPOCH": 4947, "BSTAR": 0, "MEAN_MOTION_DOT": 9.7e-07, "MEAN_MOTION_DDOT": 0}, "tle": {"line1": "1 27438U 02027A   25344.44333903  .00000097  00000+0  00000+0 0  9996", "line2": "2 27438   6.2803  72.0822 0002799 193.4676 196.2661  1.00272307 49476"}}, "geometry": {"type": "Point", "coordinates": [18.27400081579687, -5.069082311975575]}}, {"type": "Feature", "properties": {"norad_id": 27445, "name": "GALAXY 3C (G-3C)", "group": "intelsat", "lat": -1.1028401518708542, "lon": 60.4327184245272, "alt_km": 35788.448079220405, "timestamp": "2025-12-11T05:00:25.978524+00:00", "meta": {"OBJECT_NAME": "GALAXY 3C (G-3C)", "OBJECT_ID": "2002-030A", "EPOCH": "2025-12-10T12:09:57.138912", "MEAN_MOTION": 1.00271053, "ECCENTRICITY": 0.000111, "INCLINATION": 3.259, "RA_OF_ASC_NODE": 80.5266, "ARG_OF_PERICENTER": 95.032, "MEAN_ANOMALY": 351.5472, "EPHEMERIS_TYPE": 0, "CLASSIFICATION_TYPE": "U", "NORAD_CAT_ID": 27445, "ELEMENT_SET_NO": 999, "REV_AT_EPOCH": 4460, "BSTAR": 0, "MEAN_MOTION_DOT": -1.49e-06, "MEAN_MOTION_DDOT": 0}, "tle": {"line1": "1 27445U 02030A   25344.50691133 -.00000149  00000+0  00000+0 0  9996", "line2": "2 27445   3.2590  80.5266 0001110  95.0320 351.5472  1.00271053 44602"}}, "geometry": {"type": "Point", "coordinates": [60.4327184245272, -1.1028401518708542]}}, {"type": "Feature", "properties": {"norad_id": 27513, "name": "INTELSAT 906 (IS-906)", "group": "intelsat", "lat": 3.104663450004219, "lon": -140.5183600760068, "alt_km": 35768.10504793223, "timestamp": "2025-12-11T05:00:25.978536+00:00", "meta": {"OBJECT_NAME": "INTELSAT 906 (IS-906)", "OBJECT_ID": "2002-041A", "EPOCH": "2025-12-10T20:41:42.470304", "MEAN_MOTION": 1.00271229, "ECCENTRICITY": 0.00061429, "INCLINATION": 5.324, "RA_OF_ASC_NODE": 75.2537, "ARG_OF_PERICENTER": 191.2256, "MEAN_ANOMALY": 187.9112, "EPHEMERIS_TYPE": 0, "CLASSIFICATION_TYPE": "U", "NORAD_CAT_ID": 27513, "ELEMENT_SET_NO": 999, "REV_AT_EPOCH": 8514, "BSTAR": 0, "MEAN_MOTION_DOT": 1.7e-07, "MEAN_MOTION_DDOT": 0}, "tle": {"line1": "1 27513U 02041A   25344.86229711  .00000017  00000+0  00000+0 0  9995", "line2": "2 27513   5.3240  75.2537 0006142 191.2256 187.9112  1.00271229 85143"}}, "geometry": {"type": "Point", "coordinates": [-140.5183600760068, 3.104663450004219]}}, {"type": "Feature", "properties": {"norad_id": 27954, "name": "GALAXY 13 (HORIZONS-1)", "group": "intelsat", "lat": -0.9125486133218347, "lon": 5.298936911325732, "alt_km": 35790.00716827452, "timestamp": "2025-12-11T05:00:25.978549+00:00", "meta": {"OBJECT_NAME": "GALAXY 13 (HORIZONS-1)", "OBJECT_ID": "2003-044A", "EPOCH": "2025-12-10T17:57:54.854784", "MEAN_MOTION": 1.00270654, "ECCENTRICITY": 0.00020347, "INCLINATION": 0.9303, "RA_OF_ASC_NODE": 86.4957, "ARG_OF_PERICENTER": 164.4206, "MEAN_ANOMALY": 308.2812, "EPHEMERIS_TYPE": 0, "CLASSIFICATION_TYPE": "U", "NORAD_CAT_ID": 27954, "ELEMENT_SET_NO": 999, "REV_AT_EPOCH": 4468, "BSTAR": 0, "MEAN_MOTION_DOT": 1.37e-06, "MEAN_MOTION_DDOT": 0}, "tle": {"line1": "1 27954U 03044A   25344.74855156  .00000137  00000+0  00000+0 0  9996", "line2": "2 27954   0.9303  86.4957 0002034 164.4206 308.2812  1.00270654 44686"}}, "geometry": {"type": "Point", "coordinates": [5.298936911325732, -0.9125486133218347]}}, {"type": "Feature", "properties": {"norad_id": 28358, "name": "INTELSAT 10-02", "group": "intelsat", "lat": 0.021964803383907685, "lon": 154.29871387535917, "alt_km": 35791.28189470378, "timestamp": "2025-12-11T05:00:25.978561+00:00", "meta": {"OBJECT_NAME": "INTELSAT 10-02", "OBJECT_ID": "2004-022A", "EPOCH": "2025-12-10T20:23:06.750816", "MEAN_MOTION": 1.0027016, "ECCENTRICITY": 0.00013667, "INCLINATION": 0.0243, "RA_OF_ASC_NODE": 65.2701, "ARG_OF_PERICENTER": 234.9439, "MEAN_ANOMALY": 84.4151, "EPHEMERIS_TYPE": 0, "CLASSIFICATION_TYPE": "U", "NORAD_CAT_ID": 28358, "ELEMENT_SET_NO": 999, "REV_AT_EPOCH": 7866, "BSTAR": 0, "MEAN_MOTION_DOT": -6e-08, "MEAN_MOTION_DDOT": 0}, "tle": {"line1": "1 28358U 04022A   25344.84938369 -.00000006  00000+0  00000+0 0  9997", "line2": "2 28358   0.0243  65.2701 0001366 234.9439  84.4151  1.00270160 78665"}}, "geometry": {"type": "Point", "coordinates": [154.29871387535917, 0.021964803383907685]}}, {"type": "Feature", "properties": {"norad_id": 28626, "name": "XM-3 (RHYTHM)", "group": "intelsat", "lat": -0.06257575236156715, "lon": -83.14336463365122, "alt_km": 36157.947272438054, "timestamp": "2025-12-11T05:00:25.978573+00:00", "meta": {"OBJECT_NAME": "XM-3 (RHYTHM)", "OBJECT_ID": "2005-008A", "EPOCH": "2025-12-10T20:58:33.357216", "MEAN_MOTION": 0.98953207, "ECCENTRICITY": 0.00014494, "INCLINATION": 0.17, "RA_OF_ASC_NODE": 81.3404, "ARG_OF_PERICENTER": 267.0513, "MEAN_ANOMALY": 169.2739, "EPHEMERIS_TYPE": 0, "CLASSIFICATION_TYPE": "U", "NORAD_CAT_ID": 28626, "ELEMENT_SET_NO": 999, "REV_AT_EPOCH": 4073, "BSTAR": 0, "MEAN_MOTION_DOT": -2.06e-06, "MEAN_MOTION_DDOT": 0}, "tle": {"line1": "1 28626U 05008A   25344.87399719 -.00000206  00000+0  00000+0 0  9995", "line2": "2 28626   0.1700  81.3404 0001449 267.0513 169.2739  0.98953207 40730"}}, "geometry": {"type": "Point", "coordinates": [-83.14336463365122, -0.06257575236156715]}}]}